{
"type": "FeatureCollection",
"name": "concesiones",
"crs": { "type": "name", "properties": { "name": "urn:ogc:def:crs:OGC:1.3:CRS84" } },
"features": [
{ "type": "Feature", "properties": { "nombre": "ESTANCIA LA MARIPOSA", "codigo": "ELM", "operadora": "ALIANZA PETROLERA ARGENTINA S.A.", "pozos": 13, "sin_producir": 4 }, "geometry": { "type": "Polygon", "coordinates": [ [ [ -68.117240906142854, -46.081661223043753 ], [ -68.116561889219781, -46.120353697921601 ], [ -68.200721740415929, -46.121009825300035 ], [ -68.201271057113559, -46.082313536397322 ], [ -68.117240906142854, -46.081661223043753 ] ] ] } },
{ "type": "Feature", "properties": { "nombre": "ESTANCIA LA ESCONDIDA", "codigo": "ECH", "operadora": "COLHUE HUAPI S.A.", "pozos": 64, "sin_producir": 16 }, "geometry": { "type": "Polygon", "coordinates": [ [ [ -68.222296692039038, -45.53508999198641 ], [ -68.227626212596874, -45.549803922213357 ], [ -68.297546052022767, -45.605106534233869 ], [ -68.380130778074431, -45.643894641969723 ], [ -68.443784707172881, -45.624711790566209 ], [ -68.523666754329383, -45.626194352414075 ], [ -68.571526290778593, -45.638594799472514 ], [ -68.66271690136, -45.647023290902041 ], [ -68.720015527130045, -45.674695715797213 ], [ -68.753212061375791, -45.669347130095844 ], [ -68.772160763667671, -45.675479983986463 ], [ -68.973299916745077, -45.672997968024163 ], [ -68.973312264096251, -45.646743594527777 ], [ -68.961768377025919, -45.64674094445445 ], [ -68.961782586593756, -45.625652141584794 ], [ -68.948961030315786, -45.625646503190751 ], [ -68.948998161637007, -45.584260136833336 ], [ -68.671876867266633, -45.583800746116196 ], [ -68.67214760665064, -45.537268760040547 ], [ -68.222296692039038, -45.53508999198641 ] ] ] } },
{ "type": "Feature", "properties": { "nombre": "CAÑADON DE LA ESCONDIDA - LAS HERAS", "codigo": "ESC", "operadora": "Clear Petroleum S.A.", "pozos": 2921, "sin_producir": 1676 }, "geometry": { "type": "Polygon", "coordinates": [ [ [ -68.353378003999978, -46.335140396999975 ], [ -68.35315424199996, -46.35763953299994 ], [ -68.177761390999933, -46.35650295399995 ], [ -68.175775754999961, -46.483327422999935 ], [ -68.14322234399998, -46.483114262999948 ], [ -68.14298652399998, -46.500202208999951 ], [ -68.88813855899997, -46.503333013999963 ], [ -68.888084030999948, -46.537528174999977 ], [ -68.863963319999982, -46.537506518999976 ], [ -68.863830564999944, -46.590589871999953 ], [ -68.840986073999943, -46.590562215999967 ], [ -68.840942678999966, -46.609408300999974 ], [ -68.860411709999937, -46.633299403999956 ], [ -68.872183178999933, -46.633309557999951 ], [ -68.87215933799996, -46.671136417999946 ], [ -68.883567470999935, -46.670118603999981 ], [ -68.926630552999939, -46.678631812999981 ], [ -68.96922703599995, -46.690144045999944 ], [ -69.002807938999979, -46.705583707999949 ], [ -69.002795909999975, -46.370250005999935 ], [ -68.880635018999953, -46.370196715999953 ], [ -68.884017617999973, -46.300929513999961 ], [ -68.353378003999978, -46.335140396999975 ] ] ] } },
{ "type": "Feature", "properties": { "nombre": "BARRANCA YANKOWSKY", "codigo": "BYK", "operadora": "PATAGONIA RESOURCES S.A.", "pozos": 13, "sin_producir": 10 }, "geometry": { "type": "Polygon", "coordinates": [ [ [ -69.190747516999977, -45.998664332999965 ], [ -69.191140673999939, -46.045345681999947 ], [ -69.227587351999944, -46.045278920999976 ], [ -69.227861222999934, -46.11185321399995 ], [ -69.649536603999934, -46.110234800999933 ], [ -69.648229848999961, -45.998665695999932 ], [ -69.190747516999977, -45.998664332999965 ] ] ] } },
{ "type": "Feature", "properties": { "nombre": "CAÑADON LEON - MESETA ESPINOSA", "codigo": "CLM", "operadora": "QUINTANA E&P ARGENTINA S.R.L.", "pozos": 2909, "sin_producir": 2226 }, "geometry": { "type": "Polygon", "coordinates": [ [ [ -67.518253837999964, -46.528012005999983 ], [ -67.518842614999983, -46.602671062999946 ], [ -67.486075119999953, -46.602690050999968 ], [ -67.488775013999941, -46.700710528999934 ], [ -67.656634562999955, -46.702901848999943 ], [ -67.656426566999983, -46.711443577999944 ], [ -67.682184543999938, -46.711740432999932 ], [ -67.682527279999988, -46.697334096999953 ], [ -67.745657735999941, -46.698047254999949 ], [ -67.745983262999971, -46.684551800999941 ], [ -67.827601043999948, -46.685399273999963 ], [ -67.831340816999955, -46.636898084999984 ], [ -67.824924770999985, -46.63054520299994 ], [ -67.801422462999938, -46.630285160999961 ], [ -67.802004117999957, -46.605103781999958 ], [ -67.813713124999936, -46.605241083999942 ], [ -67.814327053999932, -46.579134171999954 ], [ -67.777799380999966, -46.57876319099995 ], [ -67.778203108999946, -46.560789154999952 ], [ -67.801675952999972, -46.561021297999957 ], [ -67.80203759799997, -46.543048440999939 ], [ -67.659985140999936, -46.541455295999981 ], [ -67.659809344999985, -46.548650001999931 ], [ -67.611560865999934, -46.548971383999969 ], [ -67.611681193999971, -46.545378030999984 ], [ -67.592308387999935, -46.537031333999948 ], [ -67.518253837999964, -46.528012005999983 ] ] ] } },
{ "type": "Feature", "properties": { "nombre": "LOS PERALES - LAS MESETAS", "codigo": "PER", "operadora": "PATAGONIA RESOURCES S.A.", "pozos": 3031, "sin_producir": 1579 }, "geometry": { "type": "Polygon", "coordinates": [ [ [ -69.12066845399994, -45.998619426999937 ], [ -69.123595990999945, -46.118684919999964 ], [ -68.892587861999971, -46.121825028999979 ], [ -68.880556235999961, -46.370190118999972 ], [ -69.002724869999952, -46.370247868999968 ], [ -69.002711302999955, -46.33246397299996 ], [ -69.196767070999954, -46.332265938999967 ], [ -69.196589203999963, -46.323270080999976 ], [ -69.340319471999976, -46.322909531999983 ], [ -69.340231693999954, -46.309417234999955 ], [ -69.483027604999961, -46.308881996999958 ], [ -69.481234883999946, -46.110968690999982 ], [ -69.227679869999974, -46.111784573999955 ], [ -69.227419333999933, -46.045204854999952 ], [ -69.190988226999934, -46.045276961999946 ], [ -69.190560288999961, -45.998611882999967 ], [ -69.12066845399994, -45.998619426999937 ] ] ] } },
{ "type": "Feature", "properties": { "nombre": "EL GUADAL - LOMAS DEL CUY", "codigo": "CUY", "operadora": "ROCH S.A.", "pozos": 1563, "sin_producir": 901 }, "geometry": { "type": "Polygon", "coordinates": [ [ [ -69.002711302999955, -46.33246397299996 ], [ -69.002773088999959, -46.504277050999974 ], [ -69.200199864999945, -46.504029489999937 ], [ -69.200262838999947, -46.521176522999951 ], [ -69.341608042999951, -46.520820860999947 ], [ -69.340319471999976, -46.322909531999983 ], [ -69.19658919799997, -46.323268292999956 ], [ -69.19676706499996, -46.332264152999983 ], [ -69.002711302999955, -46.33246397299996 ] ] ] } },
{ "type": "Feature", "properties": { "nombre": "CAMPAMENTO CENTRAL - CAÑADON PERDIDO", "codigo": "CCC", "operadora": "PECOM SERVICIOS ENERGIA SAU", "pozos": 3031, "sin_producir": 2828 }, "geometry": { "type": "Polygon", "coordinates": [ [ [ -67.63564200999997, -45.686035629999935 ], [ -67.636750293999967, -45.72705840499998 ], [ -67.585384885999986, -45.727783440999985 ], [ -67.54288767099996, -45.724846983999953 ], [ -67.542861970999979, -45.730280990999972 ], [ -67.540301366999984, -45.732407635999948 ], [ -67.527793946999964, -45.732660995999936 ], [ -67.527189874999976, -45.760517592999975 ], [ -67.527897801999984, -45.786375612999962 ], [ -67.457472690999964, -45.786966872999983 ], [ -67.460141315999977, -45.789063228999964 ], [ -67.426733910999985, -45.810830972999952 ], [ -67.441447489999973, -45.816939444999946 ], [ -67.446603191999941, -45.81635947999996 ], [ -67.450643536999962, -45.817049717999964 ], [ -67.455000308999956, -45.819576509999933 ], [ -67.458293903999959, -45.823244668999962 ], [ -67.462555673999987, -45.830142004999971 ], [ -67.461598551999941, -45.834881678999977 ], [ -67.467309256999954, -45.840135529999941 ], [ -67.468965361999949, -45.843333525999981 ], [ -67.468330030999937, -45.847093572999938 ], [ -67.475039545999948, -45.851064269999938 ], [ -67.475904840999988, -45.856150161999949 ], [ -67.471742549999988, -45.863319194999974 ], [ -67.521816368999964, -45.864104023999971 ], [ -67.521530184999961, -45.87489676499996 ], [ -67.585912039999982, -45.875702789999934 ], [ -67.586185542999942, -45.864918737999972 ], [ -67.635095059999969, -45.865513522999947 ], [ -67.682264341999939, -45.831878512999936 ], [ -67.682265898999958, -45.797995449999974 ], [ -67.670346955999946, -45.797794365999948 ], [ -67.670381462999956, -45.792558436999968 ], [ -67.663896759999943, -45.793202548999943 ], [ -67.615137490999984, -45.792720841999937 ], [ -67.61538503099996, -45.782206176999978 ], [ -67.611296406999941, -45.78218353799997 ], [ -67.61054293799998, -45.770586025999933 ], [ -67.637487754999938, -45.770676653999942 ], [ -67.639004194999984, -45.725762687999975 ], [ -67.659451567999952, -45.725914502999956 ], [ -67.659322170999985, -45.689968917999977 ], [ -67.646538814999985, -45.689836158999981 ], [ -67.646556661999966, -45.686435394999933 ], [ -67.63564200999997, -45.686035629999935 ] ], [ [ -67.612382152999942, -45.799944686999936 ], [ -67.614128641999969, -45.825472636999962 ], [ -67.579627981999977, -45.808224345999975 ], [ -67.579191886999979, -45.800076531999935 ], [ -67.612382152999942, -45.799944686999936 ] ], [ [ -67.542641927999966, -45.833212868999965 ], [ -67.552211585999942, -45.822609678999981 ], [ -67.56778729499996, -45.829445971999974 ], [ -67.55818252499995, -45.840029388999938 ], [ -67.542641927999966, -45.833212868999965 ] ], [ [ -67.540245162999952, -45.821530173999975 ], [ -67.533481368999958, -45.829191015999982 ], [ -67.52663784799995, -45.826187684999979 ], [ -67.523790481999981, -45.823335910999958 ], [ -67.52964235099995, -45.816598167999985 ], [ -67.540245162999952, -45.821530173999975 ] ] ] } },
{ "type": "Feature", "properties": { "nombre": "CERRO PIEDRA - CERRO GUADAL NORTE", "codigo": "CPG", "operadora": "ROCH S.A.", "pozos": 230, "sin_producir": 162 }, "geometry": { "type": "Polygon", "coordinates": [ [ [ -69.761852911999938, -46.194928986999969 ], [ -69.763404955999988, -46.307367719999945 ], [ -69.340231693999954, -46.309417234999955 ], [ -69.342401699999982, -46.637773095999933 ], [ -70.047453808999933, -46.633481499999959 ], [ -70.04348407699996, -46.426610641999957 ], [ -70.082506174999935, -46.426247905999958 ], [ -70.07790235899995, -46.192377608999948 ], [ -69.761852911999938, -46.194928986999969 ] ], [ [ -69.901803253999958, -46.355838349999942 ], [ -69.977151202999949, -46.355221059999963 ], [ -69.980382609999936, -46.53512137499996 ], [ -69.803122229999985, -46.536493442999983 ], [ -69.80133152999997, -46.415974731999938 ], [ -69.901803253999958, -46.355838349999942 ] ], [ [ -69.490048363999961, -46.36735310399996 ], [ -69.613495906999958, -46.36674482799998 ], [ -69.614811829999951, -46.483687646999954 ], [ -69.653860922999968, -46.483473774999936 ], [ -69.654842047999978, -46.564428771999985 ], [ -69.491827471999954, -46.565247614999976 ], [ -69.490048363999961, -46.36735310399996 ] ] ] } },
{ "type": "Feature", "properties": { "nombre": "LOS MONOS", "codigo": "MON", "operadora": "PATAGONIA RESOURCES S.A.", "pozos": 52, "sin_producir": 40 }, "geometry": { "type": "Polygon", "coordinates": [ [ [ -69.648257066999975, -45.998660059999963 ], [ -69.650100857999973, -46.156103057999985 ], [ -69.883101644999954, -46.154539532999934 ], [ -69.881981307999979, -46.084373108999955 ], [ -69.89749562999998, -46.084261333999962 ], [ -69.897087296999985, -46.059065844999964 ], [ -69.959107027999949, -46.058563990999971 ], [ -69.95895130699995, -46.049568629999953 ], [ -69.909863647999941, -46.04997175799997 ], [ -69.909021708999944, -45.998630542999933 ], [ -69.648257066999975, -45.998660059999963 ] ] ] } },
{ "type": "Feature", "properties": { "nombre": "ESCALANTE - EL TREBOL", "codigo": "SCA", "operadora": "PECOM SERVICIOS ENERGIA SAU", "pozos": 1928, "sin_producir": 1318 }, "geometry": { "type": "Polygon", "coordinates": [ [ [ -67.740801003999934, -45.717389891999971 ], [ -67.717528649999963, -45.726317151999979 ], [ -67.717297761999987, -45.748744557999942 ], [ -67.71540869599994, -45.74874134099997 ], [ -67.71536740199997, -45.749982480999961 ], [ -67.791014619999942, -45.750457209999979 ], [ -67.790577756999937, -45.765324884999984 ], [ -67.755680561999952, -45.765121056999931 ], [ -67.755392059999963, -45.793692780999947 ], [ -67.682346295999935, -45.792783655999983 ], [ -67.682324041999948, -45.831911717999958 ], [ -67.736276581999959, -45.832503236999969 ], [ -67.735420570999963, -45.870281269999964 ], [ -67.767611110999951, -45.870633028999976 ], [ -67.768088019999936, -45.849045362999959 ], [ -67.793167909999966, -45.850212734999957 ], [ -67.794484221999937, -45.848877063999964 ], [ -67.824098290999984, -45.848735848999979 ], [ -67.873205449999944, -45.855528636999964 ], [ -67.991391562999979, -45.845656725999959 ], [ -67.973645745999988, -45.837581304999958 ], [ -67.975805741999977, -45.719738564999943 ], [ -67.740801003999934, -45.717389891999971 ] ] ] } },
{ "type": "Feature", "properties": { "nombre": "RESTINGA ALI", "codigo": "ALI", "operadora": "COPESA CIA CONSTRUCTORA PETROLERA SA", "pozos": 560, "sin_producir": 531 }, "geometry": { "type": "Polygon", "coordinates": [ [ [ -67.342980259999933, -45.622920429999965 ], [ -67.345383319999939, -45.623202054999979 ], [ -67.351272485999971, -45.630625972999951 ], [ -67.356804733999979, -45.639584642999978 ], [ -67.360159769999939, -45.649899606999952 ], [ -67.361658831999932, -45.659821959999931 ], [ -67.361694522999983, -45.668744937999975 ], [ -67.358839168999964, -45.676739925999982 ], [ -67.358625016999952, -45.680630343999951 ], [ -67.361337603999971, -45.687661651999974 ], [ -67.362146619999976, -45.694455011999935 ], [ -67.361611240999935, -45.698559581999973 ], [ -67.358696401999964, -45.705888322999954 ], [ -67.355793457999937, -45.710326016999943 ], [ -67.350106547999985, -45.711700155999949 ], [ -67.34889302199997, -45.713282498999945 ], [ -67.329821117999984, -45.714352296999948 ], [ -67.231836572999953, -45.715451042999973 ], [ -67.293511210999952, -45.827728787999945 ], [ -67.392975289999981, -45.894037204999961 ], [ -67.434299128999953, -45.947508441999958 ], [ -67.502743448999979, -45.923703627999942 ], [ -67.556422949999956, -45.933313504999944 ], [ -67.546174099999973, -45.917001636999942 ], [ -67.54309031799994, -45.914660248999951 ], [ -67.537379610999949, -45.91323257199997 ], [ -67.531611797999972, -45.909749040999941 ], [ -67.516192894999961, -45.897071272999938 ], [ -67.506256267999959, -45.883251362999943 ], [ -67.501516382999966, -45.879368081999985 ], [ -67.499403421999943, -45.87548480199996 ], [ -67.478523244999963, -45.863535656999943 ], [ -67.471742549999988, -45.863319193999985 ], [ -67.475904840999988, -45.856150161999949 ], [ -67.475039545999948, -45.851064268999949 ], [ -67.468330030999937, -45.847093571999949 ], [ -67.468965361999949, -45.843333524999935 ], [ -67.467309256999954, -45.840135528999951 ], [ -67.461598551999941, -45.834881677999931 ], [ -67.462555673999987, -45.830142003999981 ], [ -67.46170559799998, -45.82790740799993 ], [ -67.455000308999956, -45.819576508999944 ], [ -67.452350666999962, -45.817784268999958 ], [ -67.44805221699994, -45.816480985999931 ], [ -67.441447489999973, -45.816939443999956 ], [ -67.426733910999985, -45.810830971999962 ], [ -67.417204670999979, -45.80055652599998 ], [ -67.406925399999977, -45.797986707999939 ], [ -67.405890333999935, -45.796059343999957 ], [ -67.405640492999964, -45.792597228999966 ], [ -67.403927278999959, -45.790634172999944 ], [ -67.397716884999966, -45.787314824999953 ], [ -67.392077564999965, -45.786422526999957 ], [ -67.387616076999961, -45.78724344099993 ], [ -67.37655158299998, -45.791205244999958 ], [ -67.368699363999951, -45.786969804999956 ], [ -67.36727168799996, -45.781068740999956 ], [ -67.365415708999933, -45.778451333999953 ], [ -67.366462669999976, -45.775738747999981 ], [ -67.373886589999984, -45.769219023999938 ], [ -67.372982391999983, -45.765507065999941 ], [ -67.372125789999984, -45.765126350999935 ], [ -67.372744448999981, -45.760319839999966 ], [ -67.368281770999943, -45.754604374999985 ], [ -67.375877009999954, -45.750321344999975 ], [ -67.377989970999977, -45.745181708999951 ], [ -67.377761542999963, -45.741127109999979 ], [ -67.379360540999983, -45.736786970999958 ], [ -67.376733614999978, -45.731247586999984 ], [ -67.373192979999942, -45.728449339999941 ], [ -67.359245187999989, -45.724397838999948 ], [ -67.423091663999969, -45.723494246999962 ], [ -67.424703024999985, -45.668113787999971 ], [ -67.51698517799997, -45.668607867999981 ], [ -67.517055651999954, -45.671216210999944 ], [ -67.546584496999969, -45.671629955999947 ], [ -67.547080265999966, -45.68961784499993 ], [ -67.512594220999972, -45.688547855999957 ], [ -67.549145093999982, -45.714822082999945 ], [ -67.549762490999967, -45.724784577999969 ], [ -67.582324428999982, -45.725123521999933 ], [ -67.582342193999978, -45.714711939999972 ], [ -67.585326498999962, -45.714713130999939 ], [ -67.585350647999974, -45.692244351999932 ], [ -67.614490571999966, -45.692280226999969 ], [ -67.614470878999953, -45.725458934999949 ], [ -67.636754325999959, -45.727056384999969 ], [ -67.635634010999979, -45.686026716999947 ], [ -67.590714547999937, -45.685482516999969 ], [ -67.592189796999946, -45.621175680999954 ], [ -67.342980259999933, -45.622920429999965 ] ] ] } },
{ "type": "Feature", "properties": { "nombre": "PICO TRUNCADO - EL CORDON", "codigo": "PTC", "operadora": "BREST S.A. DE SERVICIOS PETROLEROS", "pozos": 2175, "sin_producir": 1929 }, "geometry": { "type": "Polygon", "coordinates": [ [ [ -67.87211156099994, -46.62377672599996 ], [ -67.83133294299995, -46.636899820999986 ], [ -67.827597290999961, -46.685392049999962 ], [ -67.825306858999966, -46.792813688999956 ], [ -67.880288408999945, -46.793461998999931 ], [ -67.880039737999937, -46.80380447899995 ], [ -68.165657953999983, -46.806242224999949 ], [ -68.167608757999972, -46.68033143599996 ], [ -68.006868929999939, -46.679042844999969 ], [ -68.006587420999949, -46.694327697999938 ], [ -67.956886003999955, -46.693832308999959 ], [ -67.957277327999975, -46.67499253099993 ], [ -67.917423245999942, -46.624748848999957 ], [ -67.87211156099994, -46.62377672599996 ] ] ] } },
{ "type": "Feature", "properties": { "nombre": "CAÑADON YATEL", "codigo": "YAT", "operadora": "ROCH S.A.", "pozos": 466, "sin_producir": 142 }, "geometry": { "type": "Polygon", "coordinates": [ [ [ -69.490048363999961, -46.36735310399996 ], [ -69.491827471999954, -46.565247614999976 ], [ -69.654842047999978, -46.564428771999985 ], [ -69.653860922999968, -46.483473774999936 ], [ -69.614811829999951, -46.483687646999954 ], [ -69.613495906999958, -46.36674482799998 ], [ -69.490048363999961, -46.36735310399996 ] ] ] } },
{ "type": "Feature", "properties": { "nombre": "CAÑADON VASCO", "codigo": "CVA", "operadora": "AZRUGE S.A.", "pozos": 94, "sin_producir": 76 }, "geometry": { "type": "Polygon", "coordinates": [ [ [ -69.200262838999947, -46.521176522999951 ], [ -69.20157557899995, -46.696605918999978 ], [ -69.342792059999965, -46.69624201299996 ], [ -69.341608042999951, -46.520820860999947 ], [ -69.200262838999947, -46.521176522999951 ] ] ] } },
{ "type": "Feature", "properties": { "nombre": "MANANTIALES BEHR", "codigo": "BEH", "operadora": "PECOM SERVICIOS ENERGIA SAU", "pozos": 2513, "sin_producir": 1241 }, "geometry": { "type": "Polygon", "coordinates": [ [ [ -67.595224463999955, -45.50514 ], [ -67.590716598999961, -45.685482581999963 ], [ -67.647823948999985, -45.68617288799993 ], [ -67.678113953999969, -45.680949129999931 ], [ -67.744201639999972, -45.681694815999947 ], [ -67.743895584999962, -45.695367283999985 ], [ -67.740686611999934, -45.695331950999957 ], [ -67.740833639999948, -45.717376801999933 ], [ -67.975838260999979, -45.719725452999967 ], [ -67.97565740899995, -45.729620724999961 ], [ -68.083877661999963, -45.730539833999956 ], [ -68.08472050499995, -45.678920589999962 ], [ -68.156924954999965, -45.678528688999961 ], [ -68.159434662999956, -45.510685965999983 ], [ -67.595224463999955, -45.50514 ] ] ] } },
{ "type": "Feature", "properties": { "nombre": "SOLANO", "codigo": "SOLN", "operadora": "COMPAÑÍAS ASOCIADAS PETROLERAS S.A.", "pozos": 314, "sin_producir": 311 }, "geometry": { "type": "Polygon", "coordinates": [ [ [ -67.424915428342459, -45.66772068366312 ], [ -67.423340476191314, -45.696147277311958 ], [ -67.474992339499579, -45.696616399209127 ], [ -67.475018024983839, -45.695299959603354 ], [ -67.487181007054829, -45.695395957017688 ], [ -67.48733843837654, -45.687915074843687 ], [ -67.545776084244054, -45.689246313503602 ], [ -67.546536518927539, -45.671282596710981 ], [ -67.517003526403769, -45.670867614541933 ], [ -67.516892380391226, -45.668273679861876 ], [ -67.424915428342459, -45.66772068366312 ] ] ] } },
{ "type": "Feature", "properties": { "nombre": "GEMELOS", "codigo": "GEM", "operadora": "COMPAÑÍAS ASOCIADAS PETROLERAS S.A.", "pozos": 6, "sin_producir": 6 }, "geometry": { "type": "Polygon", "coordinates": [ [ [ -67.585284152302378, -45.71436377652482 ], [ -67.61444457754385, -45.713937161279723 ], [ -67.614461521009076, -45.691941650064187 ], [ -67.585317066108104, -45.691898610284085 ], [ -67.585284152302378, -45.71436377652482 ] ] ] } },
{ "type": "Feature", "properties": { "nombre": "SINDICATO", "codigo": "SIND", "operadora": "COMPAÑÍAS ASOCIADAS PETROLERAS S.A.", "pozos": 85, "sin_producir": 83 }, "geometry": { "type": "Polygon", "coordinates": [ [ [ -67.663626379234771, -45.792097193525599 ], [ -67.663269529367682, -45.770450329884824 ], [ -67.610269775024747, -45.7702577105321 ], [ -67.611030229974986, -45.781856299194622 ], [ -67.614711030245829, -45.781870223128898 ], [ -67.614861687588146, -45.792389897625355 ], [ -67.663626379234771, -45.792097193525599 ] ] ] } },
{ "type": "Feature", "properties": { "nombre": "DIADEMA", "codigo": "DIA", "operadora": "COMPAÑÍAS ASOCIADAS PETROLERAS S.A.", "pozos": 2125, "sin_producir": 1197 }, "geometry": { "type": "Polygon", "coordinates": [ [ [ -67.646493831735185, -45.68607638379676 ], [ -67.646488000866924, -45.689457947951844 ], [ -67.659268152811762, -45.689597511282876 ], [ -67.660091129115827, -45.707578599769136 ], [ -67.659348820902494, -45.707585815304903 ], [ -67.659425667351996, -45.725424396551276 ], [ -67.638908323967257, -45.725384029294332 ], [ -67.637490958844069, -45.770308085702247 ], [ -67.663269529367682, -45.770450329884824 ], [ -67.663588307419928, -45.792085375834453 ], [ -67.670473852641152, -45.792232745847627 ], [ -67.6704210505128, -45.797448668756743 ], [ -67.682290654285353, -45.797644316123204 ], [ -67.682351825523199, -45.792435592821306 ], [ -67.755386060950457, -45.79334674340403 ], [ -67.75567450842432, -45.764773052930586 ], [ -67.790574041642159, -45.764975108983954 ], [ -67.791018649773648, -45.750111708784914 ], [ -67.71536909604437, -45.749632001473202 ], [ -67.715408624754289, -45.74839083277886 ], [ -67.717301684674737, -45.748399238589911 ], [ -67.717500644685984, -45.717806422967328 ], [ -67.739983177602809, -45.7179245427224 ], [ -67.739828247775449, -45.69464017586963 ], [ -67.743013020241875, -45.69467157627259 ], [ -67.742680813426063, -45.680907469550917 ], [ -67.678095354088697, -45.680354483671813 ], [ -67.646493831735185, -45.68607638379676 ] ] ] } },
{ "type": "Feature", "properties": { "nombre": "ANTICLINAL AGUADA BANDERA", "codigo": "AAB", "operadora": "QUINTANA E&P ARGENTINA S.R.L.", "pozos": 28, "sin_producir": 15 }, "geometry": { "type": "Polygon", "coordinates": [ [ [ -69.76134479844599, -46.155371421376017 ], [ -69.650085341219537, -46.15605832231337 ], [ -69.64954710907837, -46.110297537159759 ], [ -69.481394458851511, -46.111080107437992 ], [ -69.483123648939539, -46.308985426303401 ], [ -69.763507869509823, -46.307456882108376 ], [ -69.76134479844599, -46.155371421376017 ] ] ] } },
{ "type": "Feature", "properties": { "nombre": "PAMPA VERDUN", "codigo": "VER", "operadora": "COPESA CIA CONSTRUCTORA PETROLERA SA", "pozos": 4, "sin_producir": 4 }, "geometry": { "type": "Polygon", "coordinates": [ [ [ -69.977553534373612, -46.534414158006129 ], [ -69.974684310195244, -46.353785880352547 ], [ -69.898930042103828, -46.353933717130637 ], [ -69.799166171017021, -46.41499956742804 ], [ -69.800549990567234, -46.535494168640312 ], [ -69.977553534373612, -46.534414158006129 ] ] ] } },
{ "type": "Feature", "properties": { "nombre": "SIERRA DEL CARRIL", "codigo": "SDC", "operadora": "COPESA CIA CONSTRUCTORA PETROLERA SA", "pozos": 14, "sin_producir": 14 }, "geometry": { "type": "Polygon", "coordinates": [ [ [ -70.075256946683936, -45.997391289739269 ], [ -69.961462740303745, -45.998367896629148 ], [ -69.961214816636428, -46.058445811183567 ], [ -69.894416182961521, -46.058062814340033 ], [ -69.894257980371918, -46.083448826957351 ], [ -69.879163885875514, -46.083444411335371 ], [ -69.879242268504726, -46.154564056319998 ], [ -69.758669622754823, -46.154229937212619 ], [ -69.759791528161102, -46.191508560328963 ], [ -70.075203166175129, -46.187963952300287 ], [ -70.075256946683936, -45.997391289739269 ] ] ] } },
{ "type": "Feature", "properties": { "nombre": "EL VALLE", "codigo": "VAL", "operadora": "INGENIERIA ALPA S.A.", "pozos": 73, "sin_producir": 45 }, "geometry": { "type": "Polygon", "coordinates": [ [ [ -68.296809, -46.6991605 ], [ -68.295873, -46.7711196 ], [ -68.4006058, -46.771716 ], [ -68.4014026, -46.6997555 ], [ -68.296809, -46.6991605 ] ] ] } },
{ "type": "Feature", "properties": { "nombre": "PICO SALAMANCA", "codigo": "PSA", "operadora": "PETROMINERA CHUBUT S.E.", "pozos": 25, "sin_producir": 25 }, "geometry": { "type": "Polygon", "coordinates": [ [ [ -67.363428061638743, -45.55605362331184 ], [ -67.361485436135439, -45.622841023366917 ], [ -67.438934462865959, -45.622360277977435 ], [ -67.43825385666652, -45.600694143029415 ], [ -67.410677320754701, -45.600907583970915 ], [ -67.410095166884005, -45.618786379188755 ], [ -67.405106893609087, -45.618806822182563 ], [ -67.405852068715276, -45.582557507891771 ], [ -67.431612580961229, -45.582815180527319 ], [ -67.43151324468559, -45.587303623863001 ], [ -67.438507979668856, -45.587372383154701 ], [ -67.437784508817998, -45.557095036453916 ], [ -67.363428061638743, -45.55605362331184 ] ] ] } },
{ "type": "Feature", "properties": { "nombre": "CAÑADON PILAR", "codigo": "PIL", "operadora": "PETROMINERA CHUBUT S.E.", "pozos": 10, "sin_producir": 10 }, "geometry": { "type": "Polygon", "coordinates": [ [ [ -67.437784508817998, -45.557095036453916 ], [ -67.438934462865944, -45.622360277977464 ], [ -67.592242829710486, -45.621221668917109 ], [ -67.593794702311214, -45.559122457195258 ], [ -67.437784508817998, -45.557095036453916 ] ] ] } },
{ "type": "Feature", "properties": { "nombre": "PAMPA DEL CASTILLO - LA GUITARRA", "codigo": "PAM", "operadora": "CAPEX S.A.", "pozos": 664, "sin_producir": 330 }, "geometry": { "type": "Polygon", "coordinates": [ [ [ -68.024135573999871, -45.860492443999952 ], [ -68.0866796399999, -45.861009500999927 ], [ -68.085267617999961, -45.730540292999954 ], [ -67.975672110999923, -45.729610200999915 ], [ -67.97369306799996, -45.837557925999938 ], [ -68.024135573999871, -45.860492443999952 ] ] ] } },
{ "type": "Feature", "properties": { "nombre": "MATAMAGALLANES OESTE", "codigo": "MMO", "operadora": "INTEROIL ARGENTINA S A", "pozos": 55, "sin_producir": 43 }, "geometry": { "type": "Polygon", "coordinates": [ [ [ -70.003198961999942, -45.938972544999956 ], [ -69.911659702999941, -45.93973953099993 ], [ -69.912663875999954, -46.000907935999976 ], [ -70.004303923999942, -46.00013931999996 ], [ -70.003198961999942, -45.938972544999956 ] ] ] } },
{ "type": "Feature", "properties": { "nombre": "CERRO NEGRO", "codigo": "CENE", "operadora": "Pilgrim Energy S.A.", "pozos": 48, "sin_producir": 10 }, "geometry": { "type": "Polygon", "coordinates": [ [ [ -69.00114773277717, -45.671606839557747 ], [ -68.790615623369746, -45.674213113957421 ], [ -68.79297082741104, -45.776767035233057 ], [ -69.001149836036603, -45.774228476406734 ], [ -69.00114773277717, -45.671606839557747 ] ] ] } },
{ "type": "Feature", "properties": { "nombre": "ANTICLINAL GRANDE - CERRO DRAGON", "codigo": "ANG", "operadora": "PAN AMERICAN ENERGY SL", "pozos": 6049, "sin_producir": 1591 }, "geometry": { "type": "Polygon", "coordinates": [ [ [ -68.084882564999987, -45.678924179999967 ], [ -68.088171988999989, -45.994691559999978 ], [ -68.591524512999968, -45.99103159699996 ], [ -68.591665191999937, -45.999860566999985 ], [ -68.896115268999949, -45.999800759999971 ], [ -68.894689320999987, -45.888915443999963 ], [ -68.720788630999948, -45.888622853999948 ], [ -68.721238346999939, -45.798654243999977 ], [ -68.951480940999943, -45.798983995999947 ], [ -68.951402665999979, -45.88895363599994 ], [ -68.987476621999974, -45.888963283999942 ], [ -68.989094342999977, -45.999799137999958 ], [ -69.121060786999976, -45.999794665999957 ], [ -69.114448090999986, -45.771603908999964 ], [ -68.794768914999963, -45.775669545999961 ], [ -68.792397637999954, -45.67311566199993 ], [ -68.084882564999987, -45.678924179999967 ] ] ] } },
{ "type": "Feature", "properties": { "nombre": "CERRO TORTUGA - LAS FLORES", "codigo": "CTO", "operadora": "PAN AMERICAN ENERGY SL", "pozos": 401, "sin_producir": 172 }, "geometry": { "type": "Polygon", "coordinates": [ [ [ -68.159426975999963, -45.510688194999943 ], [ -68.156915486999935, -45.678618363999931 ], [ -68.772001297999964, -45.673345027999972 ], [ -68.75313585899994, -45.667234346999976 ], [ -68.719988162999982, -45.672601243999964 ], [ -68.662697408999975, -45.644914832999973 ], [ -68.571506882999984, -45.636475636999933 ], [ -68.523644336999951, -45.624067735999972 ], [ -68.443760368999961, -45.622591027999931 ], [ -68.380116455999939, -45.641769574999955 ], [ -68.297521796999945, -45.602989891999982 ], [ -68.227576374999956, -45.547699144999967 ], [ -68.222247439999933, -45.532979128999955 ], [ -68.18570925299997, -45.510878587999969 ], [ -68.159426975999963, -45.510688194999943 ] ] ] } },
{ "type": "Feature", "properties": { "nombre": "ANTICLINAL FUNES", "codigo": "AFU", "operadora": "PAN AMERICAN ENERGY SL", "pozos": 51, "sin_producir": 25 }, "geometry": { "type": "Polygon", "coordinates": [ [ [ -69.116535916999965, -45.851117454999951 ], [ -69.120890007999947, -45.999794846999976 ], [ -69.198991476999936, -45.999451482999973 ], [ -69.198461409999936, -45.85100453299998 ], [ -69.116535916999965, -45.851117454999951 ] ] ] } },
{ "type": "Feature", "properties": { "nombre": "CHULENGO", "codigo": "CHU", "operadora": "PAN AMERICAN ENERGY SL", "pozos": 66, "sin_producir": 16 }, "geometry": { "type": "Polygon", "coordinates": [ [ [ -68.894518881999943, -45.888915285999985 ], [ -68.895944489999977, -45.999800604999962 ], [ -68.988923562999958, -45.999799120999967 ], [ -68.987306181999941, -45.888963264999973 ], [ -68.951232225999945, -45.888953563999962 ], [ -68.951310775999957, -45.79898392399997 ], [ -68.721068184999979, -45.798653828999932 ], [ -68.720618194999986, -45.888622436999981 ], [ -68.894518881999943, -45.888915285999985 ] ] ] } },
{ "type": "Feature", "properties": { "nombre": "CERRO DRAGON", "codigo": "CRRD", "operadora": "PAN AMERICAN ENERGY SL", "pozos": 617, "sin_producir": 174 }, "geometry": { "type": "Polygon", "coordinates": [ [ [ -69.120890007999947, -45.999794846999976 ], [ -68.591494415999932, -45.999859956999956 ], [ -68.593973655999946, -46.125063233999981 ], [ -68.729976270999941, -46.123819055999945 ], [ -68.727405089999934, -46.002313527999945 ], [ -68.79814117799998, -46.00147971399997 ], [ -68.80095847399997, -46.122921098999939 ], [ -69.124347145999934, -46.118807385999958 ], [ -69.120890007999947, -45.999794846999976 ] ] ] } },
{ "type": "Feature", "properties": { "nombre": "BELLA VISTA OESTE - BLOQUE I", "codigo": "BVOI", "operadora": "CAPEX S.A.", "pozos": 131, "sin_producir": 71 }, "geometry": { "type": "Polygon", "coordinates": [ [ [ -67.681134909069371, -45.832151185624433 ], [ -67.633941043912287, -45.865784396147554 ], [ -67.585059213838036, -45.865189451956667 ], [ -67.584602159549846, -45.88623612848491 ], [ -67.733593291198773, -45.887148068241956 ], [ -67.735175056259394, -45.832762253659098 ], [ -67.681134909069371, -45.832151185624433 ] ] ] } },
{ "type": "Feature", "properties": { "nombre": "JOSE SEGUNDO", "codigo": "JSE", "operadora": "CAPETROL S.A.", "pozos": 77, "sin_producir": 77 }, "geometry": { "type": "Polygon", "coordinates": [ [ [ -67.57921, -45.80007 ], [ -67.58061, -45.80823 ], [ -67.61415, -45.82546 ], [ -67.6124, -45.79994 ], [ -67.57921, -45.80007 ] ] ] } },
{ "type": "Feature", "properties": { "nombre": "MINA RESERVA", "codigo": "MINR", "operadora": "COMPAÑÍAS ASOCIADAS PETROLERAS S.A.", "pozos": 29, "sin_producir": 29 }, "geometry": { "type": "Polygon", "coordinates": [ [ [ -67.454916426999944, -45.788650146999942 ], [ -67.406879900999911, -45.754976894999913 ], [ -67.393428284999914, -45.764270234999913 ], [ -67.455429241999923, -45.791850567999916 ], [ -67.459939361999943, -45.788702090999948 ], [ -67.457196859999954, -45.787056387999939 ], [ -67.454916426999944, -45.788650146999942 ] ] ] } },
{ "type": "Feature", "properties": { "nombre": "KM. 20", "codigo": "K20", "operadora": "COMPAÑÍAS ASOCIADAS PETROLERAS S.A.", "pozos": 1348, "sin_producir": 1274 }, "geometry": { "type": "Polygon", "coordinates": [ [ [ -67.466822032999914, -45.748242035999908 ], [ -67.496580212999902, -45.764139658999909 ], [ -67.49660494099993, -45.760214334999944 ], [ -67.52661788599994, -45.760546641999952 ], [ -67.527515162999919, -45.732450962999906 ], [ -67.539816856999948, -45.732437750999907 ], [ -67.542864376999944, -45.730286652999951 ], [ -67.542847231999929, -45.724697177999928 ], [ -67.549716854999929, -45.724781567999912 ], [ -67.549103681999952, -45.714814283999942 ], [ -67.512554346999934, -45.688543249999952 ], [ -67.487341503999914, -45.688252646999956 ], [ -67.487202578999927, -45.694854199999952 ], [ -67.528241082999898, -45.724536911999905 ], [ -67.486617016999901, -45.72414815399992 ], [ -67.487184069999898, -45.695733511999947 ], [ -67.475021041999923, -45.695637513999941 ], [ -67.474995355999908, -45.696953949999909 ], [ -67.423343294999938, -45.696484823999924 ], [ -67.422840777999909, -45.707705157999953 ], [ -67.423401347999913, -45.723611044999927 ], [ -67.417542675999925, -45.723489354999913 ], [ -67.416590331999942, -45.726696804999904 ], [ -67.443196089999901, -45.745367948999956 ], [ -67.45151119399992, -45.743336823999925 ], [ -67.447760277999919, -45.735641971999939 ], [ -67.44920914699992, -45.735307617999922 ], [ -67.452988104999918, -45.742977062999955 ], [ -67.46013776399991, -45.741256139999905 ], [ -67.463829461999921, -45.748943967999935 ], [ -67.466822032999914, -45.748242035999908 ] ] ] } },
{ "type": "Feature", "properties": { "nombre": "KOLUEL KAIKE - EL VALLE", "codigo": "KOL", "operadora": "CROWN POINT ENERGIA S.A.", "pozos": 497, "sin_producir": 307 }, "geometry": { "type": "Polygon", "coordinates": [ [ [ -68.429047879863774, -46.677418201731925 ], [ -68.167676892962504, -46.675815395481486 ], [ -68.165492225751436, -46.817552160154598 ], [ -68.171012962695286, -46.814481343720075 ], [ -68.173475332200169, -46.812220250403115 ], [ -68.178849980071774, -46.810061743895581 ], [ -68.187403268185051, -46.796063825581939 ], [ -68.19250896775506, -46.790407345628452 ], [ -68.197241743525652, -46.788104567001561 ], [ -68.205573949180618, -46.786436153009824 ], [ -68.238532997661281, -46.78538598780478 ], [ -68.249237211440104, -46.786581765390544 ], [ -68.263588807209331, -46.789816372578052 ], [ -68.277394832376558, -46.788271408108244 ], [ -68.282116677103346, -46.788457796012295 ], [ -68.286351873618173, -46.790165696006476 ], [ -68.294913435331893, -46.795915944970659 ], [ -68.31324968675284, -46.805542406722822 ], [ -68.320878321072442, -46.807692822378343 ], [ -68.339134643356758, -46.804572253097653 ], [ -68.359721827011413, -46.802723388253561 ], [ -68.369691589858249, -46.801010499729131 ], [ -68.379514329976445, -46.798052123944018 ], [ -68.393503881472554, -46.791488344905254 ], [ -68.398905888714353, -46.788029556492909 ], [ -68.402318655074708, -46.7814086508508 ], [ -68.407623628074717, -46.780774188387639 ], [ -68.412347484265823, -46.778810239539517 ], [ -68.428075153650468, -46.769537353919446 ], [ -68.429047879863774, -46.677418201731925 ] ], [ [ -68.401354518305155, -46.699765819623138 ], [ -68.400834126050029, -46.771583890027266 ], [ -68.296086401739046, -46.771149459727376 ], [ -68.296774357967422, -46.6991438931421 ], [ -68.401354518305155, -46.699765819623138 ] ] ] } },
{ "type": "Feature", "properties": { "nombre": "PIEDRA CLAVADA", "codigo": "PCL", "operadora": "CROWN POINT ENERGIA S.A.", "pozos": 554, "sin_producir": 173 }, "geometry": { "type": "MultiPolygon", "coordinates": [ [ [ [ -68.597356589817949, -46.540498946411418 ], [ -68.508709122626755, -46.540152558877878 ], [ -68.508112987644552, -46.606125452535935 ], [ -68.429485643820342, -46.63581234294783 ], [ -68.428991021564499, -46.6828153226705 ], [ -68.507716302593792, -46.649897062893352 ], [ -68.597046478150347, -46.582400962953528 ], [ -68.597356589817949, -46.540498946411418 ] ] ], [ [ [ -68.508112987644552, -46.606125452535935 ], [ -68.508180883943268, -46.598623256013731 ], [ -68.470847607186798, -46.612849924640116 ], [ -68.470775660295729, -46.620235119171916 ], [ -68.508112987644552, -46.606125452535935 ] ] ], [ [ [ -68.429365037995098, -46.6472841817275 ], [ -68.419438072018366, -46.64723423967191 ], [ -68.419115397242948, -46.677368207380674 ], [ -68.429047879863774, -46.677418201731925 ], [ -68.429365037995098, -46.6472841817275 ] ] ] ] } },
{ "type": "Feature", "properties": { "nombre": "PUESTO QUIROGA", "codigo": "QUI", "operadora": "CROWN POINT ENERGIA S.A.", "pozos": 27, "sin_producir": 19 }, "geometry": { "type": "Polygon", "coordinates": [ [ [ -67.921065219584193, -45.927757016373164 ], [ -67.888827780677502, -45.92808775014953 ], [ -67.802397321179399, -45.871001173465345 ], [ -67.800281533865643, -45.96910580618794 ], [ -67.555964205583564, -45.933216098144385 ], [ -67.555766636221222, -45.94506111827593 ], [ -67.535477179927852, -45.959145463792083 ], [ -67.563012402000709, -45.962484928936306 ], [ -67.596058755906824, -45.999845238966543 ], [ -67.919685585821071, -45.998688762076654 ], [ -67.921065219584193, -45.927757016373164 ] ] ] } },
{ "type": "Feature", "properties": { "nombre": "LA TAPERA", "codigo": "TAP", "operadora": "CROWN POINT ENERGIA S.A.", "pozos": 28, "sin_producir": 27 }, "geometry": { "type": "Polygon", "coordinates": [ [ [ -68.086254024003949, -45.860924585601083 ], [ -68.040783057592023, -45.860679029313701 ], [ -67.957171376457836, -45.927382111495206 ], [ -67.921065219584193, -45.927757016373164 ], [ -67.919685585821071, -45.998688762076654 ], [ -68.087919625090592, -45.998684338311534 ], [ -68.086254024003949, -45.860924585601083 ] ] ] } },
{ "type": "Feature", "properties": { "nombre": "EL TORDILLO", "codigo": "ELT", "operadora": "CROWN POINT ENERGIA S.A.", "pozos": 1620, "sin_producir": 1280 }, "geometry": { "type": "Polygon", "coordinates": [ [ [ -68.040783057592023, -45.860679029313701 ], [ -68.023976258297637, -45.860538137924664 ], [ -67.991137645985532, -45.845628342473958 ], [ -67.873214800822382, -45.85550845904811 ], [ -67.824106452650653, -45.84871728887174 ], [ -67.794491345998779, -45.848856699976693 ], [ -67.79317513422501, -45.85019281015002 ], [ -67.76809481222574, -45.849025702374206 ], [ -67.767619531316257, -45.870615687164161 ], [ -67.802397321179399, -45.871001173465345 ], [ -67.888827780677502, -45.92808775014953 ], [ -67.957171376457836, -45.927382111495206 ], [ -68.040783057592023, -45.860679029313701 ] ] ] } },
{ "type": "Feature", "properties": { "nombre": "SARMIENTO", "codigo": "SAR", "operadora": "CAPETROL ARGENTINA S.A.", "pozos": 29, "sin_producir": 29 }, "geometry": { "type": "Polygon", "coordinates": [ [ [ -69.00562, -45.58821 ], [ -69.00564, -45.77378 ], [ -69.11716, -45.77226 ], [ -69.1194, -45.85177 ], [ -69.20135, -45.85165 ], [ -69.2016, -45.92273 ], [ -69.39251, -45.92223 ], [ -69.39232, -45.90876 ], [ -69.38349, -45.89923 ], [ -69.38139, -45.88907 ], [ -69.36834, -45.86878 ], [ -69.29384, -45.82212 ], [ -69.2845, -45.80843 ], [ -69.24912, -45.78831 ], [ -69.20371, -45.77517 ], [ -69.19253, -45.77519 ], [ -69.19014, -45.58625 ], [ -69.00562, -45.58821 ] ] ] } },
{ "type": "Feature", "properties": { "nombre": "EL CORDON", "codigo": "COR", "operadora": "COMPAÑÍA GENERAL DE COMBUSTIBLES S.A.", "pozos": 491, "sin_producir": 481 }, "geometry": { "type": "Polygon", "coordinates": [ [ [ -67.917717343999982, -46.625204620999966 ], [ -67.957237408999958, -46.675048577999974 ], [ -67.956873875999975, -46.693936334999933 ], [ -68.006546423999964, -46.694378409999956 ], [ -68.006826731999979, -46.679088090999983 ], [ -68.089157850999982, -46.679773139999952 ], [ -68.10029941099998, -46.638480773999959 ], [ -68.04937079299998, -46.638068928999985 ], [ -68.049433799999974, -46.634471127999973 ], [ -67.995898244999978, -46.634013780999965 ], [ -67.996098164999978, -46.623202550999963 ], [ -67.953018117999989, -46.622816395999962 ], [ -67.952965744999972, -46.625532659999976 ], [ -67.917717343999982, -46.625204620999966 ] ] ] } },
{ "type": "Feature", "properties": { "nombre": "EL HUEMUL - KOLUEL KAIKE", "codigo": "ELH", "operadora": "COMPAÑÍA GENERAL DE COMBUSTIBLES S.A.", "pozos": 1962, "sin_producir": 1651 }, "geometry": { "type": "Polygon", "coordinates": [ [ [ -68.050204661999942, -46.590397894999967 ], [ -68.04937079299998, -46.638068928999985 ], [ -68.10029941099998, -46.638480773999959 ], [ -68.089157850999982, -46.679773139999952 ], [ -68.16757112099998, -46.680370499999981 ], [ -68.16764018899994, -46.675873138999975 ], [ -68.419210223999983, -46.677426664999984 ], [ -68.419532840999977, -46.647292627999946 ], [ -68.429329221999978, -46.647341909999966 ], [ -68.429449802999954, -46.635872922999965 ], [ -68.47073745299997, -46.620553659999985 ], [ -68.470811945999969, -46.612907581999934 ], [ -68.508145354999954, -46.598680888999979 ], [ -68.509014090999983, -46.502428578999968 ], [ -68.092166619999944, -46.499879589999978 ], [ -68.090650796999967, -46.590726562999976 ], [ -68.050204661999942, -46.590397894999967 ] ] ] } },
{ "type": "Feature", "properties": { "nombre": "TRES PICOS", "codigo": "TPI", "operadora": "COMPAÑÍA GENERAL DE COMBUSTIBLES S.A.", "pozos": 175, "sin_producir": 133 }, "geometry": { "type": "Polygon", "coordinates": [ [ [ -67.475742449999984, -46.494224717999941 ], [ -67.667556981999951, -46.496620499999949 ], [ -67.667249285999958, -46.50921141799995 ], [ -67.830080286999987, -46.510993009999936 ], [ -67.830369699999949, -46.497501905999968 ], [ -68.142966650999938, -46.500271527999985 ], [ -68.143235081999933, -46.483181103999982 ], [ -68.175789552999959, -46.483420337999974 ], [ -68.17681878999997, -46.415147504999936 ], [ -67.701809239999989, -46.42574710599996 ], [ -67.702380716999983, -46.40166176699995 ], [ -67.537440021999942, -46.399670920999938 ], [ -67.475742449999984, -46.494224717999941 ] ] ] } },
{ "type": "Feature", "properties": { "nombre": "CAÑADON SECO", "codigo": "CAS", "operadora": "COMPAÑÍA GENERAL DE COMBUSTIBLES S.A.", "pozos": 580, "sin_producir": 436 }, "geometry": { "type": "Polygon", "coordinates": [ [ [ -67.778549748999978, -46.542839943999979 ], [ -67.779275369999937, -46.510462025999971 ], [ -67.667249285999958, -46.50921141799995 ], [ -67.667556981999951, -46.496620499999949 ], [ -67.475742449999984, -46.494224717999941 ], [ -67.381754188999935, -46.604061698999942 ], [ -67.51877468899994, -46.602742625999952 ], [ -67.518199430999971, -46.528068283999971 ], [ -67.592260415999988, -46.537100327999951 ], [ -67.611602354999945, -46.545433191999962 ], [ -67.611510615999975, -46.549030485999936 ], [ -67.659763256999952, -46.54870649399993 ], [ -67.659940339999935, -46.541511758999945 ], [ -67.778549748999978, -46.542839943999979 ] ] ] } },
{ "type": "Feature", "properties": { "nombre": "MESETA ESPINOSA (CGSJ-10)", "codigo": "ESI", "operadora": "COMPAÑÍA GENERAL DE COMBUSTIBLES S.A.", "pozos": 271, "sin_producir": 203 }, "geometry": { "type": "Polygon", "coordinates": [ [ [ -67.830369699999949, -46.497501905999968 ], [ -67.830080286999987, -46.510993009999936 ], [ -67.779275369999937, -46.510462025999971 ], [ -67.778549748999978, -46.542839943999979 ], [ -67.802011922999952, -46.543088094999973 ], [ -67.801616007999939, -46.561075898999945 ], [ -67.973737785999958, -46.562749704999931 ], [ -67.981675709999934, -46.557432082999981 ], [ -68.010348504999968, -46.557674755999983 ], [ -68.010152199999936, -46.568468168999971 ], [ -68.050581566999938, -46.56881087599993 ], [ -68.050204661999942, -46.590397894999967 ], [ -68.090650796999967, -46.590726562999976 ], [ -68.092166619999944, -46.499879589999978 ], [ -67.830369699999949, -46.497501905999968 ] ] ] } },
{ "type": "Feature", "properties": { "nombre": "PIEDRA CLAVADA (CGSJ-IV)", "codigo": "PICL", "operadora": "COMPAÑÍA GENERAL DE COMBUSTIBLES S.A.", "pozos": 335, "sin_producir": 154 }, "geometry": { "type": "Polygon", "coordinates": [ [ [ -68.509014090999983, -46.502428578999968 ], [ -68.508673622999936, -46.540210052999953 ], [ -68.597321389999934, -46.540556461999984 ], [ -68.597011259999988, -46.582458125999949 ], [ -68.521304936999968, -46.639667517999953 ], [ -68.705639958999939, -46.640290259999972 ], [ -68.70604164599996, -46.566075963999936 ], [ -68.797994013999983, -46.566275290999954 ], [ -68.798227374999954, -46.503304388999936 ], [ -68.509014090999983, -46.502428578999968 ] ] ] } },
{ "type": "Feature", "properties": { "nombre": "SUR PIEDRA CLAVADA", "codigo": "SPC", "operadora": "COMPAÑÍA GENERAL DE COMBUSTIBLES S.A.", "pozos": 213, "sin_producir": 82 }, "geometry": { "type": "Polygon", "coordinates": [ [ [ -68.643889349999938, -46.795217213999933 ], [ -68.773657008999976, -46.772572873999934 ], [ -68.774516723999966, -46.566231424999955 ], [ -68.70604164599996, -46.566075963999936 ], [ -68.705639958999939, -46.640290259999972 ], [ -68.64490826399998, -46.640117894999946 ], [ -68.643889349999938, -46.795217213999933 ] ] ] } },
{ "type": "Feature", "properties": { "nombre": "CERRO WENCESLAO", "codigo": "WEL", "operadora": "COMPAÑÍA GENERAL DE COMBUSTIBLES S.A.", "pozos": 277, "sin_producir": 224 }, "geometry": { "type": "Polygon", "coordinates": [ [ [ -69.002770451999936, -46.504381912999975 ], [ -69.00278209399994, -46.732172728999956 ], [ -69.201511299999936, -46.696714528999962 ], [ -69.200798845999941, -46.504205696999975 ], [ -69.002770451999936, -46.504381912999975 ] ] ] } },
{ "type": "Feature", "properties": { "nombre": "CAÑADON LEON", "codigo": "CLE", "operadora": "COMPAÑÍA GENERAL DE COMBUSTIBLES S.A.", "pozos": 142, "sin_producir": 82 }, "geometry": { "type": "Polygon", "coordinates": [ [ [ -67.178378711999983, -46.693697884999949 ], [ -67.129008619999979, -46.717603791999977 ], [ -67.126058859999944, -46.722371733999978 ], [ -67.502410336999958, -46.793654029999971 ], [ -67.504985328999965, -46.700618391999967 ], [ -67.488728010999978, -46.700773617999971 ], [ -67.486039863999963, -46.60275483099997 ], [ -67.381754188999935, -46.604061698999942 ], [ -67.290602040999943, -46.637055387999965 ], [ -67.178378711999983, -46.693697884999949 ] ] ] } },
{ "type": "Feature", "properties": { "nombre": "LAS HERAS", "codigo": "LAS", "operadora": "COMPAÑÍA GENERAL DE COMBUSTIBLES S.A.", "pozos": 233, "sin_producir": 177 }, "geometry": { "type": "Polygon", "coordinates": [ [ [ -68.798227374999954, -46.503304388999936 ], [ -68.797994013999983, -46.566275290999954 ], [ -68.774516723999966, -46.566231424999955 ], [ -68.773657008999976, -46.772572873999934 ], [ -69.00278209399994, -46.732172728999956 ], [ -69.002780673999951, -46.704529646999958 ], [ -69.00053547899995, -46.701330284999983 ], [ -68.996345495999947, -46.698815381999964 ], [ -68.990842714999985, -46.698630158999947 ], [ -68.986251743999958, -46.696624397999983 ], [ -68.98153840699996, -46.696114190999936 ], [ -68.976291561999972, -46.694247634999954 ], [ -68.968194399999959, -46.689581696999937 ], [ -68.960233192999965, -46.68706435699994 ], [ -68.956716287999939, -46.684687943999961 ], [ -68.950126688999944, -46.683727810999983 ], [ -68.946292764999953, -46.681396138999958 ], [ -68.930622206999942, -46.679965914999968 ], [ -68.926832211999965, -46.682108575999962 ], [ -68.920979637999949, -46.683756595999967 ], [ -68.915934779999986, -46.682055886999933 ], [ -68.914482312999951, -46.680094703999941 ], [ -68.910244635999959, -46.678168335999942 ], [ -68.901343549999979, -46.678617132999932 ], [ -68.898544225999956, -46.676794292999944 ], [ -68.898098453999978, -46.674418754999976 ], [ -68.893980202999956, -46.672623382999973 ], [ -68.888012681999953, -46.672486202999949 ], [ -68.883091758999967, -46.670919768999966 ], [ -68.880908386999977, -46.671932499999969 ], [ -68.875058919999958, -46.672102958999972 ], [ -68.87209173499997, -46.673184520999939 ], [ -68.872185495999986, -46.633400931999972 ], [ -68.860432291999984, -46.633387198999969 ], [ -68.840853007999954, -46.609496914999966 ], [ -68.840908248999938, -46.590627104999953 ], [ -68.863785087999986, -46.590656630999945 ], [ -68.863917825999977, -46.537597228999971 ], [ -68.888025669999934, -46.53762336799997 ], [ -68.888096517999941, -46.503427612999985 ], [ -68.798227374999954, -46.503304388999936 ] ] ] } },
{ "type": "Feature", "properties": { "nombre": "MESETA ESPINOSA", "codigo": "MESI", "operadora": "COMPAÑÍA GENERAL DE COMBUSTIBLES S.A.", "pozos": 966, "sin_producir": 871 }, "geometry": { "type": "Polygon", "coordinates": [ [ [ -67.981675709999934, -46.557432082999981 ], [ -67.973737785999958, -46.562749704999931 ], [ -67.778146083999957, -46.560827591999953 ], [ -67.777742032999981, -46.578815180999982 ], [ -67.814263001999961, -46.579199595999967 ], [ -67.813693955999952, -46.605281842999943 ], [ -67.80194936099997, -46.605159440999955 ], [ -67.801393741999959, -46.63034207499993 ], [ -67.824893894999946, -46.630585884999959 ], [ -67.831286228999943, -46.636948461999964 ], [ -67.872044589999973, -46.623863823999955 ], [ -67.952965744999972, -46.625532659999976 ], [ -67.953018117999989, -46.622816395999962 ], [ -67.996098164999978, -46.623202550999963 ], [ -67.995898244999978, -46.634013780999965 ], [ -68.049433799999974, -46.634471127999973 ], [ -68.050581566999938, -46.56881087599993 ], [ -68.010152199999936, -46.568468168999971 ], [ -68.010348504999968, -46.557674755999983 ], [ -67.981675709999934, -46.557432082999981 ] ] ] } }
]
}
