{
"type": "FeatureCollection",
"name": "limites",
"crs": { "type": "name", "properties": { "name": "urn:ogc:def:crs:OGC:1.3:CRS84" } },
"features": [
{ "type": "Feature", "properties": { "Name": "Comodoro Rivadavia" }, "geometry": { "type": "Polygon", "coordinates": [ [ [ -67.540168037999933, -45.914052937999926 ], [ -67.605962681999983, -45.913293167999939 ], [ -67.608374528999946, -45.948168362999979 ], [ -67.531574174999946, -45.959363632999953 ], [ -67.532378843999936, -45.960004912999977 ], [ -67.534341898999969, -45.960659264999947 ], [ -67.537226994999969, -45.960897210999967 ], [ -67.543532566999943, -45.960956696999972 ], [ -67.549451475999945, -45.961492075999971 ], [ -67.551563247999979, -45.960926953999952 ], [ -67.560248280999986, -45.96083772399993 ], [ -67.565185661999976, -45.96259257699996 ], [ -67.567237946999967, -45.964258198999971 ], [ -67.568159987999934, -45.965447929999982 ], [ -67.570598935999953, -45.970742230999967 ], [ -67.57169943699995, -45.971961703999973 ], [ -67.572324044999959, -45.974043732999966 ], [ -67.572175328999947, -45.975084746999983 ], [ -67.572561990999986, -45.976571909999947 ], [ -67.580949590999978, -45.977523694999952 ], [ -67.582496240999944, -45.978118559999977 ], [ -67.584786471999962, -45.980170844999982 ], [ -67.586065431999941, -45.980795453 ], [ -67.58731464899995, -45.983145170999933 ], [ -67.587552595999966, -45.984662078 ], [ -67.587195675999965, -45.985941037999957 ], [ -67.585470566999959, -45.987160511999953 ], [ -67.58978333999994, -45.987101024999959 ], [ -67.592698179999957, -45.988052808999953 ], [ -67.592430490999959, -45.990105094999933 ], [ -67.592936125999984, -45.993109163999982 ], [ -67.595464302999972, -45.998225004999938 ], [ -67.595679641999936, -45.999794706999978 ], [ -67.780204515999969, -45.999792915999933 ], [ -67.782122455999968, -45.955471516999978 ], [ -67.714254050999955, -45.955650440999932 ], [ -67.713541060999944, -45.877606652999923 ], [ -67.716254548999984, -45.877502245999949 ], [ -67.717442675999962, -45.801513020999963 ], [ -67.719949661999976, -45.726048208999941 ], [ -67.343425805999971, -45.720788908999957 ], [ -67.342319395999937, -45.723308028999938 ], [ -67.344579883999984, -45.723308028999938 ], [ -67.345829100999936, -45.723902894999974 ], [ -67.346959344999959, -45.724943908999933 ], [ -67.349041372999977, -45.725509030999952 ], [ -67.359154081999975, -45.723397258999967 ], [ -67.361652515999936, -45.723783920999963 ], [ -67.364686328999937, -45.725568516999942 ], [ -67.369177561999948, -45.727055679999978 ], [ -67.37176522599998, -45.728394126999952 ], [ -67.375185700999964, -45.729613600999983 ], [ -67.376226714999973, -45.730505898999979 ], [ -67.378725148999933, -45.734461752999948 ], [ -67.37917129799996, -45.737227875999963 ], [ -67.378844121999975, -45.738506835999942 ], [ -67.377416445999984, -45.740945783999962 ], [ -67.377624647999937, -45.745764192999957 ], [ -67.37691080999997, -45.748738518999971 ], [ -67.374204172999953, -45.751593871999937 ], [ -67.371438049999938, -45.753259494999952 ], [ -67.368612439999936, -45.754181535999983 ], [ -67.368136547999939, -45.75471691499996 ], [ -67.368612439999936, -45.755579468999947 ], [ -67.37176522599998, -45.758286105999957 ], [ -67.372449320999976, -45.759535322999973 ], [ -67.372657522999987, -45.760963 ], [ -67.37179496899995, -45.764413217999959 ], [ -67.372241117999977, -45.765721921999969 ], [ -67.373252388999958, -45.766138326999979 ], [ -67.373787766999953, -45.766822421999962 ], [ -67.373520077999956, -45.767655233999953 ], [ -67.373787766999953, -45.768874707999927 ], [ -67.373073928999986, -45.770064437999963 ], [ -67.372389833999932, -45.770421356999982 ], [ -67.37155702299998, -45.771700316999947 ], [ -67.36664938399997, -45.774942332999963 ], [ -67.366054518999988, -45.775804887999982 ], [ -67.365965288999973, -45.777470509999937 ], [ -67.365251450999949, -45.77833306499997 ], [ -67.365221707999979, -45.779522795999981 ], [ -67.365667856999949, -45.779939200999927 ], [ -67.366946816999985, -45.780206890999978 ], [ -67.366798100999972, -45.780623295999931 ], [ -67.367333478999967, -45.781158674999972 ], [ -67.367601168999954, -45.785263244999953 ], [ -67.368552952999949, -45.787256043999953 ], [ -67.373341618999973, -45.788564746999953 ], [ -67.37444211899998, -45.790230369999954 ], [ -67.376970296999957, -45.791479586999969 ], [ -67.379022581999948, -45.791003694999972 ], [ -67.37937950099996, -45.790676518999931 ], [ -67.379409243999987, -45.790081653999948 ], [ -67.380420514999969, -45.789665247999949 ], [ -67.387469667999937, -45.787553475999971 ], [ -67.392882941999972, -45.786423231999947 ], [ -67.395797781999988, -45.786839637999947 ], [ -67.397879809999949, -45.787523732999936 ], [ -67.402252069999975, -45.789813963999961 ], [ -67.405315625999947, -45.792461114999973 ], [ -67.406088950999958, -45.793442641999953 ], [ -67.406029463999971, -45.794037507999967 ], [ -67.405642801999988, -45.794334939999942 ], [ -67.406267409999941, -45.795286724999983 ], [ -67.405791517999944, -45.796595427999932 ], [ -67.406594585999983, -45.797844644999941 ], [ -67.407040734999953, -45.798201563999953 ], [ -67.40933096599997, -45.798558483999948 ], [ -67.41242426599996, -45.799658983999947 ], [ -67.415696023999942, -45.800015902999959 ], [ -67.416380118999939, -45.800372822999982 ], [ -67.417748309999979, -45.801265119999982 ], [ -67.420395459999952, -45.804001500999959 ], [ -67.422536974999957, -45.806916339999937 ], [ -67.426522571999953, -45.81069373499998 ], [ -67.430002533999982, -45.812240383999949 ], [ -67.436932713999965, -45.814649588999927 ], [ -67.441602405999959, -45.817177766 ], [ -67.442256757999985, -45.817207508999957 ], [ -67.443773663999934, -45.816553156999937 ], [ -67.449246424999956, -45.816582900999947 ], [ -67.451536655999973, -45.817385969 ], [ -67.454748927999958, -45.81946799699994 ], [ -67.459031957999969, -45.824018715999962 ], [ -67.462125256999968, -45.82883712499995 ], [ -67.462541662999968, -45.829907881999937 ], [ -67.46248217599998, -45.831811450999972 ], [ -67.461708851999958, -45.834369371999962 ], [ -67.461976540999956, -45.835023723999939 ], [ -67.467151868999963, -45.839604185999967 ], [ -67.468460571999969, -45.841894416999928 ], [ -67.469144666999966, -45.843916958999962 ], [ -67.468311855999957, -45.846861541999942 ], [ -67.473278980999964, -45.849627664999957 ], [ -67.474736400999973, -45.851114828999982 ], [ -67.475569211999982, -45.852661477999959 ], [ -67.475777414999982, -45.853761978999962 ], [ -67.475331265999955, -45.857093223999982 ], [ -67.474855373999958, -45.858431670999948 ], [ -67.473844102999976, -45.860186523999971 ], [ -67.472832831999938, -45.861078821999968 ], [ -67.471405154999957, -45.861614199999963 ], [ -67.46783596399996, -45.86146548399995 ], [ -67.467895449999958, -45.860543442999983 ], [ -67.464653434999946, -45.860543442999983 ], [ -67.464653434999946, -45.860781388999953 ], [ -67.465486245999955, -45.860959847999943 ], [ -67.46536727299997, -45.861852145999933 ], [ -67.463285244999952, -45.86188188999995 ], [ -67.461857567999971, -45.862417267999952 ], [ -67.459121187999983, -45.862060348999933 ], [ -67.458794011999942, -45.862268551999932 ], [ -67.456533523999951, -45.861257280999951 ], [ -67.456563266999979, -45.858967049999933 ], [ -67.456265834999954, -45.85890756299996 ], [ -67.456414550999966, -45.86143574099998 ], [ -67.457158131999961, -45.862000862999942 ], [ -67.458437092999986, -45.862357781999947 ], [ -67.463731392999932, -45.862655213999957 ], [ -67.466319056999964, -45.864201863999938 ], [ -67.473308723999935, -45.865153648999971 ], [ -67.474706656999956, -45.86369622899997 ], [ -67.477294320999988, -45.864053147999982 ], [ -67.479376349999939, -45.864945445999972 ], [ -67.479881984999963, -45.866164918999971 ], [ -67.484521933999986, -45.868306433999983 ], [ -67.48547371799998, -45.868901299999948 ], [ -67.48550346199994, -45.869347448999967 ], [ -67.494039777999944, -45.87461200599995 ], [ -67.494991561999939, -45.873719707999953 ], [ -67.496121805999962, -45.873481762 ], [ -67.497817171999941, -45.874017140999968 ], [ -67.498144347999983, -45.874879694999947 ], [ -67.499096132999966, -45.874760721999962 ], [ -67.500523808999958, -45.87648583199995 ], [ -67.501445849999982, -45.878924778999931 ], [ -67.502754553999978, -45.880620144999973 ], [ -67.507275529999959, -45.884278565999971 ], [ -67.511826248999967, -45.891000543999937 ], [ -67.512867262999976, -45.89299334199994 ], [ -67.514294939999957, -45.894867167999962 ], [ -67.517804644999956, -45.898228155999959 ], [ -67.532765505999976, -45.910571609999977 ], [ -67.536007521999977, -45.912653638999977 ], [ -67.540168037999933, -45.914052937999926 ] ] ] } }
]
}
